#aV2019  8 20  0  0  0.00000000     288 DD+AD WGS84 FIT  NGA
## 2067 172800.00000000   300.00000000 58715 0.0000000000000
+   31     1  2  3  5  6  7  8  9 10 11 12 13 14 15 16 17 18
+         19 20 21 22 23 24 25 26 27 28 29 30 31 32  0  0  0
+          0  0  0  0  0  0  0  0  0  0  0  0  0  0  0  0  0
+          0  0  0  0  0  0  0  0  0  0  0  0  0  0  0  0  0
+          0  0  0  0  0  0  0  0  0  0  0  0  0  0  0  0  0
++         2  2  2  2  2  2  2  2  2  2  2  2  2  2  2  2  2
++         2  2  2  2  2  2  2  2  2  2  2  2  2  2  0  0  0
++         0  0  0  0  0  0  0  0  0  0  0  0  0  0  0  0  0
++         0  0  0  0  0  0  0  0  0  0  0  0  0  0  0  0  0
++         0  0  0  0  0  0  0  0  0  0  0  0  0  0  0  0  0
%c cc cc ccc ccc cccc cccc cccc cccc ccccc ccccc ccccc ccccc
%c cc cc ccc ccc cccc cccc cccc cccc ccccc ccccc ccccc ccccc
%f  0.0000000  0.000000000  0.00000000000  0.000000000000000
%f  0.0000000  0.000000000  0.00000000000  0.000000000000000
%i    0    0    0    0      0      0      0      0         0
%i    0    0    0    0      0      0      0      0         0
/*      NGA, ST. LOUIS,MO.                                  
/*   EPHEMERIS COMPUTED FROM 2 DAYS OF DATA                 
/*   EPOCHA v5 SMOOTHER                                     
/*   G1762 IERS2010 SATAF SATAPC                            
*  2019  8 20 11 20  0.00000000
P  1  13961.511654 -20654.516349   8480.200331   -102.394465                    
V  1  -1661.852405  11263.521597  29786.573271     -0.116542                    
P  2 -15798.136760   1879.898352 -20639.148567   -286.975208                    
V  2   7117.264578 -26750.121277  -7795.428001     -0.083313                    
P  3  18088.611241 -13126.766962 -14333.131615     -3.111536                    
V  3  18239.410229   -930.504846  24042.737140     -0.031471                    
P  5 -26261.018515   2010.091963  -4337.042674     -0.752573                    
V  5   4662.577066  -3862.007991 -30761.001931     -0.002845                    
P  6  -9202.811566 -14516.354319 -20200.997177    -30.757422                    
V  6   9796.941303 -23782.493469  12630.540055     -0.119572                    
P  7   5057.072977 -25128.990187   6184.020932    -89.025950                    
V  7   5788.673690  -5917.628004 -30599.278864     -0.078541                    
P  8  14581.680890  -5618.386760  21533.483377     -3.384128                    
V  8  17341.892781  20970.830562  -6080.128623     -0.014740                    
P  9  -3278.370892 -21144.002592 -15772.382499    -10.946982                    
V  9  14556.080767  13843.231467 -21648.385828     -0.090429                    
P 10  11842.109033  12361.796752  20423.561428    -21.270413                    
V 10 -25215.255826   5187.462443  11310.624237     -0.143551                    
P 11  10003.055246 -19129.029296  15126.916225   -530.143994                    
V 11   4871.802923  19825.566433  20831.657982      0.102450                    
P 12 -21287.396218  10272.481622 -12161.422319    212.260410                    
V 12 -15241.052378   -348.335783  27012.861407     -0.037382                    
P 13 -18440.417001  -5675.520037  18169.106524    -48.733162                    
V 13 -11280.806577 -20386.350284 -17650.754623      0.019521                    
P 14  18467.547406  17759.975901  -7024.497507    -65.635267                    
V 14   3227.460920   9108.275851  29931.819231      0.019196                    
P 15 -14531.615336   7428.004812  20729.249226   -292.856814                    
V 15 -18752.484157 -19475.030832  -5696.775592      0.026194                    
P 16  26313.073456   1284.986752  -5069.087314    -66.627430                    
V 16  -5950.430090   2179.010941 -31095.077233     -0.033746                    
P 17 -15224.797038 -21807.135881   1084.470345    110.204872                    
V 17   2119.473234   -484.463707  32175.107081      0.068539                    
P 18  15827.599685 -14291.044081  15257.932708     79.313768                    
V 18  -3890.242147  20108.173303  22252.873091      0.029789                    
P 19 -17661.853141 -18907.156767  -6207.251000   -278.435599                    
V 19  -2469.308499  -7347.931250  30955.870956      0.050377                    
P 20   1786.351925  15849.434757  21120.462539    526.540102                    
V 20 -26191.238237   7327.869755  -3437.015687      0.001495                    
P 21    432.492588  24750.234467  10652.497422   -133.193345                    
V 21  -5950.715662  11087.162078 -27414.615611      0.066120                    
P 22  22936.743431 -11121.175259  -7070.919468   -745.920489                    
V 22   9960.700500   1386.739782  29298.384961     -0.043198                    
P 23   8406.920438 -13461.627395 -20906.878945   -171.262468                    
V 23  18562.100084  20259.645116  -5879.669879      0.019581                    
P 24 -14420.674234  19097.586899  10993.566137     -1.045458                    
V 24   1097.663361 -14706.578672  26939.686785     -0.004708                    
P 25  -8277.161080  15383.277125 -20143.842218     -8.323764                    
V 25 -25003.948424   3022.788050  12961.268927     -0.019970                    
P 26  21798.853253   5979.235613 -14107.527061     19.482973                    
V 26 -17066.794011   5659.107237 -23821.376387      0.089770                    
P 27  20113.132886   7823.833399  15567.098752    -29.597402                    
V 27  11558.167133  16159.334845 -22597.158635     -0.116047                    
P 28 -10636.500026 -13265.008913  20984.586107    764.325369                    
V 28  25123.250115  -2616.320283  11512.147283     -0.009814                    
P 29   -408.091951  19663.520197 -17876.707380    120.069170                    
V 29 -14184.521120 -17603.082259 -19096.898406     -0.101081                    
P 30  -3027.573681 -21493.895381  15206.546047    -23.438968                    
V 30   9872.326781 -16884.180564 -22141.120519     -0.078216                    
P 31  10591.647824  12618.111153 -20744.617696     16.078683                    
V 31 -10905.656591  24109.467701   9537.253841     -0.026182                    
P 32  16472.613218  20892.391201   1162.241350     26.167856                    
V 32  -3068.301688    754.101643  31542.004672      0.143320                    
EOF
